*******************************************************************************
Ephemeris / PORT_LOGIN Wed Oct  7 16:02:24 2015 Pasadena, USA    / Horizons    
*******************************************************************************
Target body name: Miranda (705)                   {source: URA111}
Center body name: Uranus (799)                    {source: URA111}
Center-site name: BODY CENTER
*******************************************************************************
Start time      : A.D. 1900-Jan-01 00:00:00.0000 CT 
Stop  time      : A.D. 2099-Dec-31 00:00:00.0000 CT 
Step-size       : 14400 minutes
*******************************************************************************
Center geodetic : 0.00000000,0.00000000,0.0000000 {E-lon(deg),Lat(deg),Alt(km)}
Center cylindric: 0.00000000,0.00000000,0.0000000 {E-lon(deg),Dxy(km),Dz(km)}
Center pole/equ : IAU_URANUS                      {East-longitude +}
Center radii    : 25559.0 x 25559.0 x 24973.0 km  {Equator, meridian, pole}    
Output units    : AU-D                                                         
Output format   : 03
Output type     : GEOMETRIC cartesian states
Coordinate systm: Body Mean Equator and Node of Date                           
*******************************************************************************
JDCT 
   X     Y     Z
   VX    VY    VZ
   LT    RG    RR
*******************************************************************************
$$SOE
2446950.500000000 = A.D. 1987-Jun-04 00:00:00.0000 (CT)
   7.629362253735078E-04  4.150887683591015E-04 -2.716202007779280E-05
   1.847522599161944E-03 -3.371346286355870E-03  2.707653420246002E-04
   5.018749785190763E-06  8.689695880407773E-04  3.198508628133651E-06
2446960.500000000 = A.D. 1987-Jun-14 00:00:00.0000 (CT)
   8.688645294997112E-04  2.685722432876195E-05  3.989937888067320E-06
   1.180739394687485E-04 -3.839343191167684E-03  2.958572492232126E-04
   5.020592678578639E-06  8.692886751394790E-04  7.553400490648595E-07
2446970.500000000 = A.D. 1987-Jun-24 00:00:00.0000 (CT)
   7.872130316017085E-04 -3.670297218683153E-04  3.424261223565831E-05
  -1.635474730823272E-03 -3.479169436382640E-03  2.544954609909758E-04
   5.020343290138102E-06  8.692454948695488E-04 -2.063675929586197E-06
2446980.500000000 = A.D. 1987-Jul-04 00:00:00.0000 (CT)
   5.357054735685698E-04 -6.816902074039474E-04  5.680121029644844E-05
  -3.037264941223406E-03 -2.367980855510789E-03  1.559328447200865E-04
   5.018085519530371E-06  8.688545740070106E-04 -4.595612411970049E-06
2446990.500000000 = A.D. 1987-Jul-14 00:00:00.0000 (CT)
   1.681991542379878E-04 -8.491459034150703E-04  6.658061253479112E-05
  -3.785184077946427E-03 -7.422688304732167E-04  2.203639455802424E-05
   5.014309867327076E-06  8.682008400931655E-04 -5.647342230631554E-06
2447000.500000000 = A.D. 1987-Jul-24 00:00:00.0000 (CT)
  -2.358415301666164E-04 -8.327272334895559E-04  6.135391948310559E-05
  -3.712886368402782E-03  1.048188107977616E-03 -1.170914706652634E-04
   5.011140640637992E-06  8.676521055022225E-04 -5.055023216689855E-06
2447010.500000000 = A.D. 1987-Aug-03 00:00:00.0000 (CT)
  -5.884348074866430E-04 -6.357319308343420E-04  4.228683500280540E-05
  -2.833620814608171E-03  2.613062328935388E-03 -2.299459788292018E-04
   5.009072077842402E-06  8.672939449568166E-04 -4.069818447721277E-06
2447020.500000000 = A.D. 1987-Aug-13 00:00:00.0000 (CT)
  -8.129981331439761E-04 -3.007350900531948E-04  1.366110142024153E-05
  -1.338089788770642E-03  3.612115615864543E-03 -2.909245967683433E-04
   5.007058577044682E-06  8.669453181008059E-04 -2.768069844793916E-06
2447030.500000000 = A.D. 1987-Aug-23 00:00:00.0000 (CT)
  -8.607008230466361E-04  9.985760530918827E-05 -1.806083443307879E-05
   4.504027552432564E-04  3.827163597178947E-03 -2.861469551029343E-04
   5.005424332788378E-06  8.666623574793481E-04 -3.722065659450018E-07
2447040.500000000 = A.D. 1987-Sep-02 00:00:00.0000 (CT)
  -7.209577772002874E-04  4.789297985701445E-04 -4.571463449215854E-05
   2.141869225866664E-03  3.208501655023962E-03 -2.165084894061656E-04
   5.005890978788839E-06  8.667431547296870E-04  2.708278297802761E-06
2447050.500000000 = A.D. 1987-Sep-12 00:00:00.0000 (CT)
  -4.243325075205199E-04  7.537130545243725E-04 -6.300528830708822E-05
   3.364970909826443E-03  1.891927020875533E-03 -9.785175353760927E-05
   5.008780144562306E-06  8.672433982762688E-04  4.922179739286549E-06
2447060.500000000 = A.D. 1987-Sep-22 00:00:00.0000 (CT)
  -3.565984501269103E-05  8.645962740510839E-04 -6.603752871015695E-05
   3.855122727917378E-03  1.678406862999319E-04  4.261528844234286E-05
   5.012269190366569E-06  8.678475078304314E-04  5.562203784771265E-06
2447070.500000000 = A.D. 1987-Oct-02 00:00:00.0000 (CT)
   3.607203599476669E-04  7.880753049100928E-04 -5.417073234687031E-05
   3.509658680563270E-03 -1.588957779927361E-03  1.732147204569484E-04
   5.015452711842012E-06  8.683987174869078E-04  5.071158318899954E-06
2447080.500000000 = A.D. 1987-Oct-12 00:00:00.0000 (CT)
   6.791761258692340E-04  5.408752115979876E-04 -3.009465706932591E-05
   2.405785793028530E-03 -3.000385587866678E-03  2.646642800435371E-04
   5.017499268717678E-06  8.687530678253917E-04  3.629459552758945E-06
2447090.500000000 = A.D. 1987-Oct-22 00:00:00.0000 (CT)
   8.509126215548338E-04  1.764639046098797E-04  7.844727406448214E-07
   7.821099896222380E-04 -3.761838188470090E-03  2.964742582583052E-04
   5.019029822088107E-06  8.690180749265031E-04  2.199243484966599E-06
2447100.500000000 = A.D. 1987-Nov-01 00:00:00.0000 (CT)
   8.387833557946743E-04 -2.259518730640021E-04  3.147532014462019E-05
  -1.008987852226362E-03 -3.708997047554534E-03  2.614790564911988E-04
   5.020392232817444E-06  8.692539690317854E-04 -4.285231916314304E-08
2447110.500000000 = A.D. 1987-Nov-11 00:00:00.0000 (CT)
   6.455832213524605E-04 -5.793359128977741E-04  5.507311159627677E-05
  -2.581162401776812E-03 -2.855855167174268E-03  1.678177315171619E-04
   5.019855286359723E-06  8.691609996345979E-04 -3.006845842851874E-06
2447120.500000000 = A.D. 1987-Nov-21 00:00:00.0000 (CT)
   3.128911520365358E-04 -8.076038274850153E-04  6.629629105904312E-05
  -3.597769181542207E-03 -1.385325432374385E-03  3.631220173193278E-05
   5.016794926121354E-06  8.686311146852743E-04 -5.190532672798746E-06
2447130.500000000 = A.D. 1987-Dec-01 00:00:00.0000 (CT)
  -8.769726491310547E-05 -8.612675552876019E-04  6.258684688807016E-05
  -3.837267247459958E-03  3.888103064966150E-04 -1.036772868573970E-04
   5.013035882055466E-06  8.679802563812800E-04 -5.576963585070037E-06
2447140.500000000 = A.D. 1987-Dec-11 00:00:00.0000 (CT)
  -4.692895453886495E-04 -7.282281215929095E-04  4.476455808571954E-05
  -3.243315818189700E-03  2.082182545771333E-03 -2.204968363928565E-04
   5.010250468818911E-06  8.674979770295908E-04 -4.749430892130986E-06
2447150.500000000 = A.D. 1987-Dec-21 00:00:00.0000 (CT)
  -7.487001901498876E-04 -4.371623929863684E-04  1.683274886342521E-05
  -1.943692327073983E-03  3.324899305044103E-03 -2.875953070406945E-04
   5.008231235121101E-06  8.671483575526999E-04 -3.597010026223401E-06
2447160.500000000 = A.D. 1987-Dec-31 00:00:00.0000 (CT)
  -8.652403507259277E-04 -5.119821600170024E-05 -1.489935730818332E-05
  -2.209275341308316E-04  3.846057649043251E-03 -2.896762014062293E-04
   5.006691918710014E-06  8.668818331781327E-04 -1.660992156941533E-06
2447170.500000000 = A.D. 1988-Jan-10 00:00:00.0000 (CT)
  -7.935094663168662E-04  3.459806042888725E-04 -4.326008430261863E-05
   1.551561954007093E-03  3.531403959779341E-03 -2.261836622071330E-04
   5.005849632782363E-06  8.667359958905830E-04  4.648499747527954E-07
2447180.500000000 = A.D. 1988-Jan-20 00:00:00.0000 (CT)
  -5.488660503757399E-04  6.680830152999512E-04 -6.182547285809728E-05
   2.986877859931970E-03  2.447820994033062E-03 -1.114360527326288E-04
   5.006449178030510E-06  8.668398039323450E-04  3.277841318861730E-06
2447190.500000000 = A.D. 1988-Jan-30 00:00:00.0000 (CT)
  -1.847796780103421E-04  8.448589176498782E-04 -6.640142600710947E-05
   3.770109802580602E-03  8.323885342439861E-04  2.842997997627109E-05
   5.009539809513927E-06  8.673749301852727E-04  5.445637572528966E-06
2447200.500000000 = A.D. 1988-Feb-09 00:00:00.0000 (CT)
   2.192427774371873E-04  8.380611147255825E-04 -5.595831079986595E-05
   3.733123265624195E-03 -9.599463171903080E-04  1.615738101693861E-04
   5.013552984148228E-06  8.680697898331864E-04  5.673777823754685E-06
2447210.500000000 = A.D. 1988-Feb-19 00:00:00.0000 (CT)
   5.756625448343412E-04  6.495573401325820E-04 -3.289157070590505E-05
   2.888636640663468E-03 -2.540903294079613E-03  2.580229896777188E-04
   5.016375841716814E-06  8.685585524699912E-04  4.525605107074832E-06
2447220.500000000 = A.D. 1988-Feb-29 00:00:00.0000 (CT)
   8.076630678253302E-04  3.202889697734982E-04 -2.399345342771264E-06
   1.420289074538922E-03 -3.570927877082491E-03  2.963407500416240E-04
   5.018092636675889E-06  8.688558063025571E-04  3.078987832961065E-06
2447230.500000000 = A.D. 1988-Mar-10 00:00:00.0000 (CT)
   8.650981719932803E-04 -7.842610298228772E-05  2.865551724434443E-05
  -3.544261206199095E-04 -3.827554040014323E-03  2.678628855085012E-04
   5.019608740584871E-06  8.691183115569736E-04  1.429618701812720E-06
2447240.500000000 = A.D. 1988-Mar-20 00:00:00.0000 (CT)
   7.356338322324692E-04 -4.599881740984106E-04  5.324394521118729E-05
  -2.050666125026142E-03 -3.256713045762185E-03  1.791588712734170E-04
   5.020321506078430E-06  8.692417230765388E-04 -1.093789619443155E-06
2447250.500000000 = A.D. 1988-Mar-30 00:00:00.0000 (CT)
   4.473983552893122E-04 -7.420908802236525E-04  6.586300508501283E-05
  -3.303951918604909E-03 -1.983195939254047E-03  5.021660740639141E-05
   5.019062001109944E-06  8.690236465514188E-04 -3.640427352454375E-06
